[
    {
        "id": 1,
        "name": "Namfix",
        "address_1": "79177 Main Drive",
        "address_2": null,
        "city": "New Orleans",
        "state": "LA",
        "zip": "70142"
    },
    {
        "id": 2,
        "name": "Treeflex",
        "address_1": "9 Canary Lane",
        "address_2": "Room 1896",
        "city": "Atlanta",
        "state": "GA",
        "zip": "31165"
    },
    {
        "id": 3,
        "name": "Holdlamis",
        "address_1": "7 Kenwood Park",
        "address_2": "Apt 1933",
        "city": "Tulsa",
        "state": "OK",
        "zip": "74108"
    },
    {
        "id": 4,
        "name": "Alphazap",
        "address_1": "1 Cottonwood Road",
        "address_2": "PO Box 11889",
        "city": "Pasadena",
        "state": "CA",
        "zip": "91199"
    },
    {
        "id": 5,
        "name": "Zaam-Dox",
        "address_1": "55 Westridge Hill",
        "address_2": "PO Box 77006",
        "city": "Omaha",
        "state": "NE",
        "zip": "68117"
    },
    {
        "id": 6,
        "name": "Sub-Ex",
        "address_1": "060 School Parkway",
        "address_2": null,
        "city": "San Antonio",
        "state": "TX",
        "zip": "78240"
    },
    {
        "id": 7,
        "name": "Tresom",
        "address_1": "943 Northport Crossing",
        "address_2": null,
        "city": "Oklahoma City",
        "state": "OK",
        "zip": "73147"
    },
    {
        "id": 8,
        "name": "Otcom",
        "address_1": "22743 Colorado Hill",
        "address_2": null,
        "city": "Fort Wayne",
        "state": "IN",
        "zip": "46814"
    },
    {
        "id": 9,
        "name": "Mat Lam Tam",
        "address_1": "70 Kedzie Circle",
        "address_2": null,
        "city": "Shreveport",
        "state": "LA",
        "zip": "71161"
    },
    {
        "id": 10,
        "name": "Konklux",
        "address_1": "81 Melby Junction",
        "address_2": null,
        "city": "Salt Lake City",
        "state": "UT",
        "zip": "84145"
    },
    {
        "id": 11,
        "name": "Hatity",
        "address_1": "64933 Katie Court",
        "address_2": "Apt 1916",
        "city": "Lake Charles",
        "state": "LA",
        "zip": "70607"
    },
    {
        "id": 12,
        "name": "Sonair",
        "address_1": "0519 Mockingbird Court",
        "address_2": null,
        "city": "Austin",
        "state": "TX",
        "zip": "78710"
    },
    {
        "id": 13,
        "name": "Voyatouch",
        "address_1": "91628 Transport Crossing",
        "address_2": "16th Floor",
        "city": "Saint Louis",
        "state": "MO",
        "zip": "63180"
    },
    {
        "id": 14,
        "name": "Regrant",
        "address_1": "39996 Almo Pass",
        "address_2": "Apt 288",
        "city": "Dallas",
        "state": "TX",
        "zip": "75353"
    },
    {
        "id": 15,
        "name": "Transcof",
        "address_1": "43 Sycamore Place",
        "address_2": "2nd Floor",
        "city": "Athens",
        "state": "GA",
        "zip": "30605"
    },
    {
        "id": 16,
        "name": "Fintone",
        "address_1": "95692 Mayer Trail",
        "address_2": "Apt 50",
        "city": "Houston",
        "state": "TX",
        "zip": "77020"
    },
    {
        "id": 17,
        "name": "Greenlam",
        "address_1": "5816 Atwood Park",
        "address_2": "Room 1907",
        "city": "New York City",
        "state": "NY",
        "zip": "10292"
    },
    {
        "id": 18,
        "name": "Namfix",
        "address_1": "3 Kim Alley",
        "address_2": null,
        "city": "New Haven",
        "state": "CT",
        "zip": "06510"
    },
    {
        "id": 19,
        "name": "Holdlamis",
        "address_1": "26 Ruskin Alley",
        "address_2": "Apt 1977",
        "city": "Oakland",
        "state": "CA",
        "zip": "94616"
    },
    {
        "id": 20,
        "name": "Tres-Zap",
        "address_1": "1 Bluejay Trail",
        "address_2": null,
        "city": "Atlanta",
        "state": "GA",
        "zip": "30311"
    },
    {
        "id": 21,
        "name": "Span",
        "address_1": "5356 Carpenter Lane",
        "address_2": "PO Box 75296",
        "city": "Decatur",
        "state": "GA",
        "zip": "30089"
    },
    {
        "id": 22,
        "name": "Prodder",
        "address_1": "727 Elka Center",
        "address_2": null,
        "city": "Chicago",
        "state": "IL",
        "zip": "60697"
    },
    {
        "id": 23,
        "name": "Ronstring",
        "address_1": "64679 Talmadge Crossing",
        "address_2": null,
        "city": "Largo",
        "state": "FL",
        "zip": "34643"
    },
    {
        "id": 24,
        "name": "Flexidy",
        "address_1": "39 Schlimgen Terrace",
        "address_2": "2nd Floor",
        "city": "San Francisco",
        "state": "CA",
        "zip": "94126"
    },
    {
        "id": 25,
        "name": "Opela",
        "address_1": "47 New Castle Avenue",
        "address_2": "Room 699",
        "city": "Minneapolis",
        "state": "MN",
        "zip": "55423"
    },
    {
        "id": 26,
        "name": "Zamit",
        "address_1": "07 Thackeray Plaza",
        "address_2": null,
        "city": "New Orleans",
        "state": "LA",
        "zip": "70149"
    },
    {
        "id": 27,
        "name": "Alphazap",
        "address_1": "0 Scoville Alley",
        "address_2": null,
        "city": "Rochester",
        "state": "NY",
        "zip": "14624"
    },
    {
        "id": 28,
        "name": "Transcof",
        "address_1": "983 Ilene Lane",
        "address_2": null,
        "city": "Saint Louis",
        "state": "MO",
        "zip": "63136"
    },
    {
        "id": 29,
        "name": "Fixflex",
        "address_1": "4 Dottie Park",
        "address_2": null,
        "city": "Birmingham",
        "state": "AL",
        "zip": "35279"
    },
    {
        "id": 30,
        "name": "Y-Solowarm",
        "address_1": "21 Merrick Lane",
        "address_2": "Apt 521",
        "city": "Ocala",
        "state": "FL",
        "zip": "34479"
    },
    {
        "id": 31,
        "name": "Pannier",
        "address_1": "731 Hauk Crossing",
        "address_2": "6th Floor",
        "city": "Young America",
        "state": "MN",
        "zip": "55573"
    },
    {
        "id": 32,
        "name": "Voyatouch",
        "address_1": "179 Namekagon Trail",
        "address_2": "17th Floor",
        "city": "Sacramento",
        "state": "CA",
        "zip": "95823"
    },
    {
        "id": 33,
        "name": "Veribet",
        "address_1": "7 Hagan Crossing",
        "address_2": null,
        "city": "Tulsa",
        "state": "OK",
        "zip": "74170"
    },
    {
        "id": 34,
        "name": "Hatity",
        "address_1": "69077 Tomscot Road",
        "address_2": "Suite 34",
        "city": "Kansas City",
        "state": "MO",
        "zip": "64190"
    },
    {
        "id": 35,
        "name": "Duobam",
        "address_1": "46 Texas Plaza",
        "address_2": null,
        "city": "Louisville",
        "state": "KY",
        "zip": "40256"
    },
    {
        "id": 36,
        "name": "Redhold",
        "address_1": "89601 Russell Circle",
        "address_2": null,
        "city": "Santa Barbara",
        "state": "CA",
        "zip": "93111"
    },
    {
        "id": 37,
        "name": "Voltsillam",
        "address_1": "48696 Buena Vista Crossing",
        "address_2": null,
        "city": "Milwaukee",
        "state": "WI",
        "zip": "53234"
    },
    {
        "id": 38,
        "name": "Domainer",
        "address_1": "10351 Walton Pass",
        "address_2": "Apt 1897",
        "city": "Greensboro",
        "state": "NC",
        "zip": "27409"
    },
    {
        "id": 39,
        "name": "Voltsillam",
        "address_1": "40 Fairview Court",
        "address_2": "Suite 20",
        "city": "Washington",
        "state": "DC",
        "zip": "20566"
    },
    {
        "id": 40,
        "name": "Temp",
        "address_1": "0 Drewry Park",
        "address_2": null,
        "city": "Chattanooga",
        "state": "TN",
        "zip": "37450"
    },
    {
        "id": 41,
        "name": "Y-Solowarm",
        "address_1": "7192 Kensington Crossing",
        "address_2": null,
        "city": "Omaha",
        "state": "NE",
        "zip": "68124"
    },
    {
        "id": 42,
        "name": "Zontrax",
        "address_1": "509 Ridgeview Plaza",
        "address_2": "Suite 51",
        "city": "Santa Barbara",
        "state": "CA",
        "zip": "93106"
    },
    {
        "id": 43,
        "name": "Overhold",
        "address_1": "32 North Circle",
        "address_2": null,
        "city": "Palm Bay",
        "state": "FL",
        "zip": "32909"
    },
    {
        "id": 44,
        "name": "Stronghold",
        "address_1": "5 Sherman Plaza",
        "address_2": "Room 1588",
        "city": "Phoenix",
        "state": "AZ",
        "zip": "85020"
    },
    {
        "id": 45,
        "name": "Tresom",
        "address_1": "2567 Vidon Pass",
        "address_2": "Suite 53",
        "city": "Nashville",
        "state": "TN",
        "zip": "37210"
    },
    {
        "id": 46,
        "name": "Regrant",
        "address_1": "0 Bellgrove Plaza",
        "address_2": "Room 1240",
        "city": "Milwaukee",
        "state": "WI",
        "zip": "53263"
    },
    {
        "id": 47,
        "name": "Fix San",
        "address_1": "89859 Browning Alley",
        "address_2": "12th Floor",
        "city": "Seattle",
        "state": "WA",
        "zip": "98140"
    },
    {
        "id": 48,
        "name": "Tres-Zap",
        "address_1": "9321 Glacier Hill Junction",
        "address_2": null,
        "city": "Toledo",
        "state": "OH",
        "zip": "43635"
    },
    {
        "id": 49,
        "name": "Matsoft",
        "address_1": "80344 Novick Court",
        "address_2": "Room 690",
        "city": "Santa Barbara",
        "state": "CA",
        "zip": "93111"
    },
    {
        "id": 50,
        "name": "Y-find",
        "address_1": "491 Dovetail Pass",
        "address_2": null,
        "city": "Huntington",
        "state": "WV",
        "zip": "25770"
    }
]